NORAD_CAT_ID,OBJECT_NAME,OBJECT_TYPE,EPOCH,MEAN_MOTION,ECCENTRICITY,INCLINATION,RA_OF_ASC_NODE,ARG_OF_PERICENTER,MEAN_ANOMALY,BSTAR,MEAN_MOTION_DOT,MEAN_MOTION_DDOT,TLE_LINE0,TLE_LINE1,TLE_LINE2,SEMIMAJOR_AXIS,PERIOD,APOGEE,PERIGEE,DECAYED
52498.0,STARLINK-3925,PAYLOAD,2023-04-05 09:53:38,15.08834843,0.0001275,53.2168,159.2948,112.3636,247.7491,7.5862e-05,9.2e-06,0.0,0 STARLINK-3925,1 52498U 22049AZ  23095.41224996  .00000920  00000-0  75862-4 0  9994,2 52498  53.2168 159.2948 0001275 112.3636 247.7491 15.08834843 51105,6917.896,95.438,540.643,538.879,0.0
52498.0,STARLINK-3925,PAYLOAD,2023-04-05 14:39:47,15.08837129,9.91e-05,53.2164,158.4023,91.7038,268.4068,0.00023207,3.407e-05,0.0,0 STARLINK-3925,1 52498U 22049AZ  23095.61097087  .00003407  00000-0  23207-3 0  9993,2 52498  53.2164 158.4023 0000991  91.7038 268.4068 15.08837129 51296,6917.889,95.438,540.44,539.069,0.0
52498.0,STARLINK-3925,PAYLOAD,2023-04-05 21:01:20,15.08834193,0.000114,53.216,157.2132,91.9129,268.1994,9.1575e-05,1.17e-05,0.0,0 STARLINK-3925,1 52498U 22049AZ  23095.87593320  .00001170  00000-0  91575-4 0  9991,2 52498  53.2160 157.2132 0001140  91.9129 268.1994 15.08834193 51170,6917.898,95.438,540.552,538.974,0.0
52498.0,STARLINK-3925,PAYLOAD,2023-04-06 11:19:48,15.08844866,0.0001162,53.2155,154.5367,87.5758,272.5367,0.00030407,4.555e-05,0.0,0 STARLINK-3925,1 52498U 22049AZ  23096.47209161  .00004555  00000-0  30407-3 0  9991,2 52498  53.2155 154.5367 0001162  87.5758 272.5367 15.08844866 51268,6917.866,95.437,540.534,538.927,0.0
52498.0,STARLINK-3925,PAYLOAD,2023-04-06 20:52:07,15.08833633,5.35e-05,53.2163,152.7548,127.1412,232.9629,4.6973e-05,4.6e-06,0.0,0 STARLINK-3925,1 52498U 22049AZ  23096.86953139  .00000460  00000-0  46973-4 0  9992,2 52498  53.2163 152.7548 0000535 127.1412 232.9629 15.08833633 51484,6917.9,95.438,540.135,539.395,0.0
52498.0,STARLINK-3925,PAYLOAD,2023-04-07 12:45:58,15.08851524,0.000115,53.2149,149.7795,94.8646,265.2478,0.00060325,9.329e-05,0.0,0 STARLINK-3925,1 52498U 22049AZ  23097.53193061  .00009329  00000-0  60325-3 0  9996,2 52498  53.2149 149.7795 0001150  94.8646 265.2478 15.08851524 51582,6917.845,95.437,540.506,538.915,0.0
52498.0,STARLINK-3925,PAYLOAD,2023-04-07 20:42:54,15.08840628,0.0001165,53.2147,148.2937,84.5608,275.5517,0.0002905,4.339e-05,0.0,0 STARLINK-3925,1 52498U 22049AZ  23097.86313269  .00004339  00000-0  29050-3 0  9992,2 52498  53.2147 148.2937 0001165  84.5608 275.5517 15.08840628 51639,6917.878,95.438,540.549,538.938,0.0
52498.0,STARLINK-3925,PAYLOAD,2023-04-08 12:36:45,15.08848221,0.0001292,53.2158,145.3197,80.1774,279.9364,0.00015966,2.255e-05,0.0,0 STARLINK-3925,1 52498U 22049AZ  23098.52553067  .00002255  00000-0  15966-3 0  9994,2 52498  53.2158 145.3197 0001292  80.1774 279.9364 15.08848221 51572,6917.855,95.437,540.614,538.826,0.0
52498.0,STARLINK-3925,PAYLOAD,2023-04-09 02:55:14,15.08840572,0.0001231,53.2163,142.6438,83.9412,276.172,0.00018182,2.607e-05,0.0,0 STARLINK-3925,1 52498U 22049AZ  23099.12169405  .00002607  00000-0  18182-3 0  9994,2 52498  53.2163 142.6438 0001231  83.9412 276.1720 15.08840572 51823,6917.879,95.438,540.595,538.892,0.0
52498.0,STARLINK-3925,PAYLOAD,2023-04-09 09:16:46,15.08843464,0.0001371,53.2159,141.4546,83.7742,276.3407,7.9224e-05,9.73e-06,0.0,0 STARLINK-3925,1 52498U 22049AZ  23099.38665237  .00000973  00000-0  79224-4 0  9995,2 52498  53.2159 141.4546 0001371  83.7742 276.3407 15.08843464 51708,6917.87,95.437,540.683,538.786,0.0
52498.0,STARLINK-3925,PAYLOAD,2023-04-09 20:24:29,15.08835696,0.0001431,53.2161,139.3731,78.3559,281.7594,-2.7177e-05,-7.2e-06,0.0,0 STARLINK-3925,1 52498U 22049AZ  23099.85033601 -.00000720  00000-0 -27177-4 0  9993,2 52498  53.2161 139.3731 0001431  78.3559 281.7594 15.08835696 51778,6917.894,95.438,540.748,538.769,0.0
52498.0,STARLINK-3925,PAYLOAD,2023-04-10 07:32:11,15.08837111,0.0001406,53.2161,137.2918,75.7109,284.4039,3.2892e-05,2.36e-06,0.0,0 STARLINK-3925,1 52498U 22049AZ  23100.31401652  .00000236  00000-0  32892-4 0  9992,2 52498  53.2161 137.2918 0001406  75.7109 284.4039 15.08837111 51842,6917.889,95.438,540.727,538.782,0.0
52498.0,STARLINK-3925,PAYLOAD,2023-04-10 13:53:43,15.08843393,0.0001426,53.2162,136.1013,82.1343,277.9811,9.8503e-05,1.28e-05,0.0,0 STARLINK-3925,1 52498U 22049AZ  23100.57897307  .00001280  00000-0  98503-4 0  9997,2 52498  53.2162 136.1013 0001426  82.1343 277.9811 15.08843393 52048,6917.87,95.437,540.722,538.749,0.0
52498.0,STARLINK-3925,PAYLOAD,2023-04-11 05:47:34,15.08843583,0.0001402,53.2165,133.1271,85.7307,274.3845,0.00013162,1.808e-05,0.0,0 STARLINK-3925,1 52498U 22049AZ  23101.24137264  .00001808  00000-0  13162-3 0  9994,2 52498  53.2165 133.1271 0001402  85.7307 274.3845 15.08843583 51988,6917.869,95.437,540.704,538.765,0.0
52498.0,STARLINK-3925,PAYLOAD,2023-04-11 18:30:39,15.08833794,7.34e-05,53.2165,130.7493,126.8169,233.289,-0.00011104,-2.054e-05,0.0,0 STARLINK-3925,1 52498U 22049AZ  23101.77129312 -.00002054  00000-0 -11104-3 0  9997,2 52498  53.2165 130.7493 0000734 126.8169 233.2890 15.08833794 52064,6917.899,95.438,540.272,539.257,0.0
52498.0,STARLINK-3925,PAYLOAD,2023-04-12 05:38:20,15.08877687,0.0001357,53.2164,128.665,105.8673,254.2469,0.00071058,0.00011051,0.0,0 STARLINK-3925,1 52498U 22049AZ  23102.23495481  .00011051  00000-0  71058-3 0  9991,2 52498  53.2164 128.6650 0001357 105.8673 254.2469 15.08877687 52292,6917.765,95.435,540.569,538.691,0.0
52498.0,STARLINK-3925,PAYLOAD,2023-04-12 07:13:44,15.08837794,0.0001512,53.2164,128.3675,101.4962,258.62,-8.9819e-05,-1.717e-05,0.0,0 STARLINK-3925,1 52498U 22049AZ  23102.30120920 -.00001717  00000-0 -89819-4 0  9997,2 52498  53.2164 128.3675 0001512 101.4962 258.6200 15.08837794 52142,6917.887,95.438,540.798,538.706,0.0
52498.0,STARLINK-3925,PAYLOAD,2023-04-12 18:21:27,15.08820296,0.0001519,53.2163,126.2859,87.3723,272.7443,-0.00034821,-5.822e-05,0.0,0 STARLINK-3925,1 52498U 22049AZ  23102.76490033 -.00005822  00000-0 -34821-3 0  9995,2 52498  53.2163 126.2859 0001519  87.3723 272.7443 15.08820296 52376,6917.941,95.439,540.856,538.755,0.0
52498.0,STARLINK-3925,PAYLOAD,2023-04-13 10:15:20,15.08804215,0.0001644,53.2172,123.3145,92.6858,267.4323,-0.00043707,-7.23e-05,0.0,0 STARLINK-3925,1 52498U 22049AZ  23103.42731864 -.00007230  00000-0 -43707-3 0  9997,2 52498  53.2172 123.3145 0001644  92.6858 267.4323 15.08804215 52314,6917.99,95.44,540.992,538.717,0.0
52498.0,STARLINK-3925,PAYLOAD,2023-04-13 18:12:15,15.08827778,0.000103,53.2168,121.8291,87.6373,272.4737,-4.9684e-05,-1.078e-05,0.0,0 STARLINK-3925,1 52498U 22049AZ  23103.75851346 -.00001078  00000-0 -49684-4 0  9996,2 52498  53.2168 121.8291 0001030  87.6373 272.4737 15.08827778 52526,6917.918,95.438,540.495,539.07,0.0
52498.0,STARLINK-3925,PAYLOAD,2023-04-14 08:30:44,15.08849163,0.0001256,53.215,119.1504,86.5276,273.5859,0.00095552,0.00014956,0.0,0 STARLINK-3925,1 52498U 22049AZ  23104.35467723  .00014956  00000-0  95552-3 0  9996,2 52498  53.2150 119.1504 0001256  86.5276 273.5859 15.08849163 52455,6917.852,95.437,540.586,538.848,0.0
52498.0,STARLINK-3925,PAYLOAD,2023-04-14 18:03:02,15.08864441,0.0001448,53.215,117.3666,91.7973,268.3185,0.00093151,0.00014578,0.0,0 STARLINK-3925,1 52498U 22049AZ  23104.75211460  .00014578  00000-0  93151-3 0  9998,2 52498  53.2150 117.3666 0001448  91.7973 268.3185 15.08864441 52673,6917.806,95.436,540.672,538.669,0.0
52498.0,STARLINK-3925,PAYLOAD,2023-04-15 08:21:29,15.08879796,0.000163,53.2157,114.6903,90.5354,269.5825,0.00090905,0.00014225,0.0,0 STARLINK-3925,1 52498U 22049AZ  23105.34826296  .00014225  00000-0  90905-3 0  9996,2 52498  53.2157 114.6903 0001630  90.5354 269.5825 15.08879796 52603,6917.759,95.435,540.751,538.496,0.0
52498.0,STARLINK-3925,PAYLOAD,2023-04-15 17:53:48,15.08865763,0.0001785,53.2147,112.9081,90.2107,269.9089,0.00052133,8.024e-05,0.0,0 STARLINK-3925,1 52498U 22049AZ  23105.74570060  .00008024  00000-0  52133-3 0  9996,2 52498  53.2147 112.9081 0001785  90.2107 269.9089 15.08865763 52823,6917.802,95.436,540.901,538.432,0.0
52498.0,STARLINK-3925,PAYLOAD,2023-04-16 06:36:53,15.08847923,0.0001641,53.2157,110.5277,96.9452,263.1727,1.3954e-05,-6.6e-07,0.0,0 STARLINK-3925,1 52498U 22049AZ  23106.27561950 -.00000066  00000-0  13954-4 0  9991,2 52498  53.2157 110.5277 0001641  96.9452 263.1727 15.08847923 52746,6917.856,95.437,540.856,538.586,0.0
52498.0,STARLINK-3925,PAYLOAD,2023-04-16 17:44:35,15.08841313,0.0001594,53.2154,108.4463,97.7362,262.3811,0.00039592,6.019e-05,0.0,0 STARLINK-3925,1 52498U 22049AZ  23106.73930213  .00006019  00000-0  39592-3 0  9992,2 52498  53.2154 108.4463 0001594  97.7362 262.3811 15.08841313 52812,6917.876,95.437,540.844,538.639,0.0
52498.0,STARLINK-3925,PAYLOAD,2023-04-17 04:52:17,15.08845619,0.0001712,53.2157,106.3643,97.7333,262.3853,3.357e-05,2.46e-06,0.0,0 STARLINK-3925,1 52498U 22049AZ  23107.20298154  .00000246  00000-0  33570-4 0  9993,2 52498  53.2157 106.3643 0001712  97.7333 262.3853 15.08845619 53047,6917.863,95.437,540.913,538.544,0.0
52498.0,STARLINK-3925,PAYLOAD,2023-04-17 09:38:26,15.08848106,0.0001698,53.2159,105.4716,100.5168,259.6016,0.00011267,1.506e-05,0.0,0 STARLINK-3925,1 52498U 22049AZ  23107.40170014  .00001506  00000-0  11267-3 0  9997,2 52498  53.2159 105.4716 0001698 100.5168 259.6016 15.08848106 52911,6917.856,95.437,540.895,538.546,0.0
52498.0,STARLINK-3925,PAYLOAD,2023-04-18 09:29:14,15.08840321,0.0001752,53.2162,101.0106,104.8315,255.2871,0.00011676,1.571e-05,0.0,0 STARLINK-3925,1 52498U 22049AZ  23108.39530494  .00001571  00000-0  11676-3 0  9994,2 52498  53.2162 101.0106 0001752 104.8315 255.2871 15.08840321 53061,6917.879,95.438,540.956,538.532,0.0
52498.0,STARLINK-3925,PAYLOAD,2023-04-19 07:44:36,15.08874674,0.0001434,53.217,96.8466,94.739,265.3766,0.00053648,8.268e-05,0.0,0 STARLINK-3925,1 52498U 22049AZ  23109.32264435  .00008268  00000-0  53648-3 0  9992,2 52498  53.2170  96.8466 0001434  94.7390 265.3766 15.08874674 53363,6917.774,95.435,540.631,538.647,0.0
